{
  "type": "FeatureCollection",
  "features": [
    {
      "type": "Feature",
      "properties": {
        "norad_id": 66510,
        "name": "STARLINK-35600",
        "group": "last-30-days",
        "lat": -10.455628268835065,
        "lon": 115.12144414392706,
        "alt_km": 415.61529845723817,
        "timestamp": "2025-12-12T11:38:30.169176+00:00",
        "meta_object_name": "STARLINK-35600",
        "meta_object_id": "2025-263AB",
        "meta_epoch": "2025-12-12T00:00:04.999104",
        "meta_mean_motion": 15.50514319,
        "meta_eccentricity": 0.0001631,
        "meta_inclination": 43.0002,
        "meta_ra_of_asc_node": 129.3809,
        "meta_arg_of_pericenter": 275.1008,
        "meta_mean_anomaly": 238.9544,
        "meta_ephemeris_type": 0,
        "meta_classification_type": "U",
        "meta_norad_cat_id": 66510,
        "meta_element_set_no": 999,
        "meta_rev_at_epoch": 551,
        "meta_bstar": 0.0011374,
        "meta_mean_motion_dot": 0.000668,
        "meta_mean_motion_ddot": 0,
        "tle_line1": "1 66510U 25263AB  25346.00005786  .00066800  00000+0  11374-2 0  9999",
        "tle_line2": "2 66510  43.0002 129.3809 0001631 275.1008 238.9544 15.50514319  5515"
      },
      "geometry": {
        "type": "Point",
        "coordinates": [
          115.12144414392706,
          -10.455628268835065
        ]
      }
    },
    {
      "type": "Feature",
      "properties": {
        "norad_id": 66511,
        "name": "STARLINK-35444",
        "group": "last-30-days",
        "lat": -7.884046295768453,
        "lon": 117.98828291171341,
        "alt_km": 415.4701146848993,
        "timestamp": "2025-12-12T11:38:30.169186+00:00",
        "meta_object_name": "STARLINK-35444",
        "meta_object_id": "2025-263AC",
        "meta_epoch": "2025-12-12T00:00:04.999104",
        "meta_mean_motion": 15.50508056,
        "meta_eccentricity": 0.0001351,
        "meta_inclination": 43.0002,
        "meta_ra_of_asc_node": 129.3718,
        "meta_arg_of_pericenter": 275.8701,
        "meta_mean_anomaly": 242.0303,
        "meta_ephemeris_type": 0,
        "meta_classification_type": "U",
        "meta_norad_cat_id": 66511,
        "meta_element_set_no": 999,
        "meta_rev_at_epoch": 551,
        "meta_bstar": 0.0011337,
        "meta_mean_motion_dot": 0.00066563,
        "meta_mean_motion_ddot": 0,
        "tle_line1": "1 66511U 25263AC  25346.00005786  .00066563  00000+0  11337-2 0  9995",
        "tle_line2": "2 66511  43.0002 129.3718 0001351 275.8701 242.0303 15.50508056  5511"
      },
      "geometry": {
        "type": "Point",
        "coordinates": [
          117.98828291171341,
          -7.884046295768453
        ]
      }
    },
    {
      "type": "Feature",
      "properties": {
        "norad_id": 66512,
        "name": "STARLINK-35366",
        "group": "last-30-days",
        "lat": -5.289941356970902,
        "lon": 120.82242391391152,
        "alt_km": 414.9786443132389,
        "timestamp": "2025-12-12T11:38:30.169196+00:00",
        "meta_object_name": "STARLINK-35366",
        "meta_object_id": "2025-263AD",
        "meta_epoch": "2025-12-12T00:00:04.999104",
        "meta_mean_motion": 15.50513108,
        "meta_eccentricity": 0.0001502,
        "meta_inclination": 43.0002,
        "meta_ra_of_asc_node": 129.3623,
        "meta_arg_of_pericenter": 287.3568,
        "meta_mean_anomaly": 234.365,
        "meta_ephemeris_type": 0,
        "meta_classification_type": "U",
        "meta_norad_cat_id": 66512,
        "meta_element_set_no": 999,
        "meta_rev_at_epoch": 551,
        "meta_bstar": 0.0012291,
        "meta_mean_motion_dot": 0.00072263,
        "meta_mean_motion_ddot": 0,
        "tle_line1": "1 66512U 25263AD  25346.00005786  .00072263  00000+0  12291-2 0  9990",
        "tle_line2": "2 66512  43.0002 129.3623 0001502 287.3568 234.3650 15.50513108  5517"
      },
      "geometry": {
        "type": "Point",
        "coordinates": [
          120.82242391391152,
          -5.289941356970902
        ]
      }
    },
    {
      "type": "Feature",
      "properties": {
        "norad_id": 66513,
        "name": "STARLINK-35692",
        "group": "last-30-days",
        "lat": -9.168061997263289,
        "lon": 116.56545537078361,
        "alt_km": 415.1765650142961,
        "timestamp": "2025-12-12T11:38:30.169220+00:00",
        "meta_object_name": "STARLINK-35692",
        "meta_object_id": "2025-263AE",
        "meta_epoch": "2025-12-12T00:00:04.999104",
        "meta_mean_motion": 15.5050845,
        "meta_eccentricity": 0.000183,
        "meta_inclination": 43.0002,
        "meta_ra_of_asc_node": 129.3766,
        "meta_arg_of_pericenter": 288.1081,
        "meta_mean_anomaly": 227.8636,
        "meta_ephemeris_type": 0,
        "meta_classification_type": "U",
        "meta_norad_cat_id": 66513,
        "meta_element_set_no": 999,
        "meta_rev_at_epoch": 551,
        "meta_bstar": 0.0014659,
        "meta_mean_motion_dot": 0.00086392,
        "meta_mean_motion_ddot": 0,
        "tle_line1": "1 66513U 25263AE  25346.00005786  .00086392  00000+0  14659-2 0  9999",
        "tle_line2": "2 66513  43.0002 129.3766 0001830 288.1081 227.8636 15.50508450  5514"
      },
      "geometry": {
        "type": "Point",
        "coordinates": [
          116.56545537078361,
          -9.168061997263289
        ]
      }
    },
    {
      "type": "Feature",
      "properties": {
        "norad_id": 66514,
        "name": "SENTINEL-6B",
        "group": "last-30-days",
        "lat": 0.006524489714435474,
        "lon": 162.9694331643663,
        "alt_km": 1337.447904371039,
        "timestamp": "2025-12-12T11:38:30.169235+00:00",
        "meta_object_name": "SENTINEL-6B",
        "meta_object_id": "2025-264A",
        "meta_epoch": "2025-12-12T00:24:12.827232",
        "meta_mean_motion": 12.81479561,
        "meta_eccentricity": 0.0007849,
        "meta_inclination": 66.0385,
        "meta_ra_of_asc_node": 163.9399,
        "meta_arg_of_pericenter": 270.1642,
        "meta_mean_anomaly": 89.8473,
        "meta_ephemeris_type": 0,
        "meta_classification_type": "U",
        "meta_norad_cat_id": 66514,
        "meta_element_set_no": 999,
        "meta_rev_at_epoch": 319,
        "meta_bstar": 0.00018857,
        "meta_mean_motion_dot": -1.7e-07,
        "meta_mean_motion_ddot": 0,
        "tle_line1": "1 66514U 25264A   25346.01681513 -.00000017  00000+0  18857-3 0  9996",
        "tle_line2": "2 66514  66.0385 163.9399 0007849 270.1642  89.8473 12.81479561  3198"
      },
      "geometry": {
        "type": "Point",
        "coordinates": [
          162.9694331643663,
          0.006524489714435474
        ]
      }
    },
    {
      "type": "Feature",
      "properties": {
        "norad_id": 66516,
        "name": "STARLINK-35924",
        "group": "last-30-days",
        "lat": 34.7800487087176,
        "lon": -172.5996273321476,
        "alt_km": 435.5295158544559,
        "timestamp": "2025-12-12T11:38:30.169246+00:00",
        "meta_object_name": "STARLINK-35924",
        "meta_object_id": "2025-265A",
        "meta_epoch": "2025-12-12T04:00:01.998720",
        "meta_mean_motion": 15.43241969,
        "meta_eccentricity": 9.94e-05,
        "meta_inclination": 43.0002,
        "meta_ra_of_asc_node": 57.4244,
        "meta_arg_of_pericenter": 266.2948,
        "meta_mean_anomaly": 246.6912,
        "meta_ephemeris_type": 0,
        "meta_classification_type": "U",
        "meta_norad_cat_id": 66516,
        "meta_element_set_no": 999,
        "meta_rev_at_epoch": 488,
        "meta_bstar": -0.045576,
        "meta_mean_motion_dot": -0.01862687,
        "meta_mean_motion_ddot": 0,
        "tle_line1": "1 66516U 25265A   25346.16668980 -.01862687  00000+0 -45576-1 0  9995",
        "tle_line2": "2 66516  43.0002  57.4244 0000994 266.2948 246.6912 15.43241969  4884"
      },
      "geometry": {
        "type": "Point",
        "coordinates": [
          -172.5996273321476,
          34.7800487087176
        ]
      }
    },
    {
      "type": "Feature",
      "properties": {
        "norad_id": 66517,
        "name": "STARLINK-35937",
        "group": "last-30-days",
        "lat": 16.45615170313668,
        "lon": -142.97492918663036,
        "alt_km": 412.89248800355654,
        "timestamp": "2025-12-12T11:38:30.169257+00:00",
        "meta_object_name": "STARLINK-35937",
        "meta_object_id": "2025-265B",
        "meta_epoch": "2025-12-12T04:00:01.998720",
        "meta_mean_motion": 15.50482962,
        "meta_eccentricity": 0.0001504,
        "meta_inclination": 43,
        "meta_ra_of_asc_node": 57.3683,
        "meta_arg_of_pericenter": 268.407,
        "meta_mean_anomaly": 267.6793,
        "meta_ephemeris_type": 0,
        "meta_classification_type": "U",
        "meta_norad_cat_id": 66517,
        "meta_element_set_no": 999,
        "meta_rev_at_epoch": 490,
        "meta_bstar": 0.0022457,
        "meta_mean_motion_dot": 0.00133214,
        "meta_mean_motion_ddot": 0,
        "tle_line1": "1 66517U 25265B   25346.16668980  .00133214  00000+0  22457-2 0  9994",
        "tle_line2": "2 66517  43.0000  57.3683 0001504 268.4070 267.6793 15.50482962  4908"
      },
      "geometry": {
        "type": "Point",
        "coordinates": [
          -142.97492918663036,
          16.45615170313668
        ]
      }
    }
  ]
}